HULIANWANG JISHU SHIYAN*
1 68834U 26091D   26114.64632787  .00000672  00000+0  45358-4 0  9997
2 68834  54.9987 255.6436 0008781 294.4698  65.5406 15.20083018    60
