{
  "norad_id": 68834,
  "name": "HULIANWANG JISHU SHIYAN OBJECT D",
  "history": [
    {
      "epoch": "2026-04-24T15:30:42.727968Z",
      "apogee_km": 511.6345705154399,
      "perigee_km": 499.5453692109659,
      "latitude_deg": 3.604886457087378e-05,
      "longitude_deg": 170.2893743345389,
      "height_km": 504.18218865792693,
      "semi_major_axis_km": 6883.726969863203,
      "eccentricity": 0.0008781,
      "inclination_deg": 54.9987,
      "raan_deg": 255.6436,
      "arg_perigee_deg": 294.4698,
      "mean_anomaly_deg": 65.5406,
      "mean_motion_rev_day": 15.20083018
    }
  ]
}